start=new Date('2023-04-18T00:00:00.000Z').valueOf();
sats=[{"ELEMENT_SET_NO":"999","CLASSIFICATION_TYPE":"U","SEMIMAJOR_AXIS":"6917.839","EPHEMERIS_TYPE":"0","REV_AT_EPOCH":"7594","ARG_OF_PERICENTER":"66.4727","EPOCH":"2023-04-17T13:32:56.637024","MEAN_MOTION_DDOT":"0.0000000000000","LAUNCH_DATE":"2021-12-02","INCLINATION":"53.2157","PERIOD":"95.437","RCS_SIZE":"LARGE","TLE_LINE1":"1 49740U 21115S   23107.56454441  .00025232  00000-0  15972-2 0  9990","MEAN_MOTION_DOT":"0.00025232","MEAN_MOTION":"15.08853529","TLE_LINE2":"2 49740  53.2157 214.7386 0001191  66.4727 293.6390 15.08853529 75947","APOAPSIS":"540.528","CENTER_NAME":"EARTH","NORAD_CAT_ID":"49740","REF_FRAME":"TEME","OBJECT_TYPE":"PAYLOAD","SITE":"AFETR","FILE":"3889215","GP_ID":"230232009","OBJECT_NAME":"STARLINK-3226","DECAY_DATE":null,"RA_OF_ASC_NODE":"214.7386","BSTAR":"0.00159720000000","OBJECT_ID":"2021-115S","MEAN_ELEMENT_THEORY":"SGP4","TIME_SYSTEM":"UTC","COUNTRY_CODE":"US","ECCENTRICITY":"0.00011910","PERIAPSIS":"538.880","MEAN_ANOMALY":"293.6390"},{"CLASSIFICATION_TYPE":"U","ELEMENT_SET_NO":"999","EPHEMERIS_TYPE":"0","SEMIMAJOR_AXIS":"6917.903","INCLINATION":"53.2139","LAUNCH_DATE":"2021-12-02","EPOCH":"2023-04-17T16:33:06.967872","MEAN_MOTION_DDOT":"0.0000000000000","ARG_OF_PERICENTER":"73.5327","REV_AT_EPOCH":"7596","PERIOD":"95.438","RCS_SIZE":"LARGE","TLE_LINE1":"1 49741U 21115T   23107.68966398 -.00001297  00000-0 -63440-4 0  9995","MEAN_MOTION_DOT":"-0.00001297","APOAPSIS":"540.891","TLE_LINE2":"2 49741  53.2139 214.1784 0001624  73.5327 286.5843 15.08832624 75969","MEAN_MOTION":"15.08832624","CENTER_NAME":"EARTH","OBJECT_TYPE":"PAYLOAD","SITE":"AFETR","REF_FRAME":"TEME","NORAD_CAT_ID":"49741","OBJECT_NAME":"STARLINK-3244","FILE":"3889391","GP_ID":"230263900","RA_OF_ASC_NODE":"214.1784","DECAY_DATE":null,"OBJECT_ID":"2021-115T","BSTAR":"-0.00006344000000","TIME_SYSTEM":"UTC","COUNTRY_CODE":"US","MEAN_ELEMENT_THEORY":"SGP4","PERIAPSIS":"538.644","ECCENTRICITY":"0.00016240","MEAN_ANOMALY":"286.5843"},{"TLE_LINE1":"1 49742U 21115U   23107.57189656 -.00001796  00000-0 -94740-4 0  9999","MEAN_MOTION_DOT":"-0.00001796","APOAPSIS":"540.788","TLE_LINE2":"2 49742  53.2172 214.7043 0001529  87.0948 273.0219 15.08845072 75941","MEAN_MOTION":"15.08845072","CENTER_NAME":"EARTH","CLASSIFICATION_TYPE":"U","ELEMENT_SET_NO":"999","SEMIMAJOR_AXIS":"6917.865","EPHEMERIS_TYPE":"0","MEAN_MOTION_DDOT":"0.0000000000000","EPOCH":"2023-04-17T13:43:31.862784","LAUNCH_DATE":"2021-12-02","INCLINATION":"53.2172","REV_AT_EPOCH":"7594","ARG_OF_PERICENTER":"87.0948","RCS_SIZE":"LARGE","PERIOD":"95.437","BSTAR":"-0.00009474000000","OBJECT_ID":"2021-115U","MEAN_ELEMENT_THEORY":"SGP4","COUNTRY_CODE":"US","TIME_SYSTEM":"UTC","ECCENTRICITY":"0.00015290","PERIAPSIS":"538.672","MEAN_ANOMALY":"273.0219","SITE":"AFETR","OBJECT_TYPE":"PAYLOAD","NORAD_CAT_ID":"49742","REF_FRAME":"TEME","OBJECT_NAME":"STARLINK-3202","FILE":"3889215","GP_ID":"230233506","DECAY_DATE":null,"RA_OF_ASC_NODE":"214.7043"},{"MEAN_ELEMENT_THEORY":"SGP4","TIME_SYSTEM":"UTC","COUNTRY_CODE":"US","BSTAR":"0.00226820000000","OBJECT_ID":"2021-115V","MEAN_ANOMALY":"306.1284","ECCENTRICITY":"0.00016420","PERIAPSIS":"538.564","GP_ID":"230263400","FILE":"3889391","OBJECT_NAME":"STARLINK-3239","NORAD_CAT_ID":"49743","REF_FRAME":"TEME","OBJECT_TYPE":"PAYLOAD","SITE":"AFETR","RA_OF_ASC_NODE":"214.4583","DECAY_DATE":null,"MEAN_MOTION_DOT":"0.00036010","TLE_LINE1":"1 49743U 21115V   23107.62710612  .00036010  00000-0  22682-2 0  9997","CENTER_NAME":"EARTH","MEAN_MOTION":"15.08854961","APOAPSIS":"540.836","TLE_LINE2":"2 49743  53.2170 214.4583 0001642  53.9861 306.1284 15.08854961 75956","SEMIMAJOR_AXIS":"6917.835","EPHEMERIS_TYPE":"0","ELEMENT_SET_NO":"999","CLASSIFICATION_TYPE":"U","PERIOD":"95.437","RCS_SIZE":"LARGE","REV_AT_EPOCH":"7595","ARG_OF_PERICENTER":"53.9861","EPOCH":"2023-04-17T15:03:01.968768","MEAN_MOTION_DDOT":"0.0000000000000","INCLINATION":"53.2170","LAUNCH_DATE":"2021-12-02"},{"CLASSIFICATION_TYPE":"U","ELEMENT_SET_NO":"999","EPHEMERIS_TYPE":"0","SEMIMAJOR_AXIS":"6917.810","INCLINATION":"53.2161","LAUNCH_DATE":"2021-12-02","EPOCH":"2023-04-17T18:25:45.186240","MEAN_MOTION_DDOT":"0.0000000000000","REV_AT_EPOCH":"7597","ARG_OF_PERICENTER":"64.1468","RCS_SIZE":"LARGE","PERIOD":"95.436","TLE_LINE1":"1 49744U 21115W   23107.76788410  .00016519  00000-0  10529-2 0  9993","MEAN_MOTION_DOT":"0.00016519","APOAPSIS":"540.696","TLE_LINE2":"2 49744  53.2161 213.7190 0001476  64.1468 295.9676 15.08863051 75977","MEAN_MOTION":"15.08863051","CENTER_NAME":"EARTH","OBJECT_TYPE":"PAYLOAD","SITE":"AFETR","REF_FRAME":"TEME","NORAD_CAT_ID":"49744","OBJECT_NAME":"STARLINK-3231","GP_ID":"230263651","FILE":"3889391","RA_OF_ASC_NODE":"213.7190","DECAY_DATE":null,"OBJECT_ID":"2021-115W","BSTAR":"0.00105290000000","TIME_SYSTEM":"UTC","COUNTRY_CODE":"US","MEAN_ELEMENT_THEORY":"SGP4","PERIAPSIS":"538.654","ECCENTRICITY":"0.00014760","MEAN_ANOMALY":"295.9676"},{"MEAN_MOTION_DDOT":"0.0000000000000","EPOCH":"2023-04-17T15:09:41.962752","INCLINATION":"53.2154","LAUNCH_DATE":"2021-12-02","ARG_OF_PERICENTER":"69.2881","REV_AT_EPOCH":"7595","PERIOD":"95.437","RCS_SIZE":"LARGE","CLASSIFICATION_TYPE":"U","ELEMENT_SET_NO":"999","SEMIMAJOR_AXIS":"6917.866","EPHEMERIS_TYPE":"0","TLE_LINE2":"2 49745  53.2154 214.4030 0001692  69.2881 290.8293 15.08844585 75954","APOAPSIS":"540.902","MEAN_MOTION":"15.08844585","CENTER_NAME":"EARTH","TLE_LINE1":"1 49745U 21115X   23107.63173568  .00001505  00000-0  11262-3 0  9997","MEAN_MOTION_DOT":"0.00001505","DECAY_DATE":null,"RA_OF_ASC_NODE":"214.4030","OBJECT_TYPE":"PAYLOAD","SITE":"AFETR","NORAD_CAT_ID":"49745","REF_FRAME":"TEME","OBJECT_NAME":"STARLINK-3241","FILE":"3889391","GP_ID":"230264401","ECCENTRICITY":"0.00016920","PERIAPSIS":"538.561","MEAN_ANOMALY":"290.8293","BSTAR":"0.00011262000000","OBJECT_ID":"2021-115X","MEAN_ELEMENT_THEORY":"SGP4","TIME_SYSTEM":"UTC","COUNTRY_CODE":"US"},{"MEAN_ELEMENT_THEORY":"SGP4","COUNTRY_CODE":"US","TIME_SYSTEM":"UTC","BSTAR":"0.00001821900000","OBJECT_ID":"2021-115Y","MEAN_ANOMALY":"274.6416","PERIAPSIS":"538.768","ECCENTRICITY":"0.00014040","FILE":"3889215","GP_ID":"230233006","OBJECT_NAME":"STARLINK-3233","NORAD_CAT_ID":"49746","REF_FRAME":"TEME","SITE":"AFETR","OBJECT_TYPE":"PAYLOAD","RA_OF_ASC_NODE":"214.6413","DECAY_DATE":null,"MEAN_MOTION_DOT":"0.00000002","TLE_LINE1":"1 49746U 21115Y   23107.58662051  .00000002  00000-0  18219-4 0  9993","CENTER_NAME":"EARTH","MEAN_MOTION":"15.08842101","TLE_LINE2":"2 49746  53.2177 214.6413 0001404  85.4736 274.6416 15.08842101 75945","APOAPSIS":"540.710","SEMIMAJOR_AXIS":"6917.874","EPHEMERIS_TYPE":"0","ELEMENT_SET_NO":"999","CLASSIFICATION_TYPE":"U","RCS_SIZE":"LARGE","PERIOD":"95.437","REV_AT_EPOCH":"7594","ARG_OF_PERICENTER":"85.4736","MEAN_MOTION_DDOT":"0.0000000000000","EPOCH":"2023-04-17T14:04:44.012064","INCLINATION":"53.2177","LAUNCH_DATE":"2021-12-02"},{"SEMIMAJOR_AXIS":"6917.871","EPHEMERIS_TYPE":"0","ELEMENT_SET_NO":"999","CLASSIFICATION_TYPE":"U","RCS_SIZE":"MEDIUM","PERIOD":"95.437","REV_AT_EPOCH":"7596","ARG_OF_PERICENTER":"108.6529","EPOCH":"2023-04-17T16:59:36.183552","MEAN_MOTION_DDOT":"0.0000000000000","INCLINATION":"53.2160","LAUNCH_DATE":"2021-12-02","MEAN_MOTION_DOT":"-0.00000721","TLE_LINE1":"1 49747U 21115Z   23107.70805768 -.00000721  00000-0 -27208-4 0  9990","CENTER_NAME":"EARTH","MEAN_MOTION":"15.08843029","TLE_LINE2":"2 49747  53.2160 214.0925 0001549 108.6529 251.4632 15.08843029 75963","APOAPSIS":"540.808","FILE":"3889391","GP_ID":"230262900","OBJECT_NAME":"STARLINK-3247","NORAD_CAT_ID":"49747","REF_FRAME":"TEME","OBJECT_TYPE":"PAYLOAD","SITE":"AFETR","DECAY_DATE":null,"RA_OF_ASC_NODE":"214.0925","MEAN_ELEMENT_THEORY":"SGP4","COUNTRY_CODE":"US","TIME_SYSTEM":"UTC","BSTAR":"-0.00002720800000","OBJECT_ID":"2021-115Z","MEAN_ANOMALY":"251.4632","ECCENTRICITY":"0.00015490","PERIAPSIS":"538.665"},{"MEAN_MOTION_DDOT":"0.0000000000000","EPOCH":"2023-04-17T15:50:42.785088","LAUNCH_DATE":"2021-12-02","INCLINATION":"53.2156","REV_AT_EPOCH":"7596","ARG_OF_PERICENTER":"102.2380","PERIOD":"95.437","RCS_SIZE":"LARGE","CLASSIFICATION_TYPE":"U","ELEMENT_SET_NO":"999","SEMIMAJOR_AXIS":"6917.862","EPHEMERIS_TYPE":"0","TLE_LINE2":"2 49748  53.2156 214.3077 0001510 102.2380 257.8781 15.08845857 75969","APOAPSIS":"540.772","MEAN_MOTION":"15.08845857","CENTER_NAME":"EARTH","TLE_LINE1":"1 49748U 21115AA  23107.66021742  .00001831  00000-0  13309-3 0  9995","MEAN_MOTION_DOT":"0.00001831","DECAY_DATE":null,"RA_OF_ASC_NODE":"214.3077","OBJECT_TYPE":"PAYLOAD","SITE":"AFETR","NORAD_CAT_ID":"49748","REF_FRAME":"TEME","OBJECT_NAME":"STARLINK-3248","FILE":"3889391","GP_ID":"230264152","PERIAPSIS":"538.683","ECCENTRICITY":"0.00015100","MEAN_ANOMALY":"257.8781","BSTAR":"0.00013309000000","OBJECT_ID":"2021-115AA","MEAN_ELEMENT_THEORY":"SGP4","COUNTRY_CODE":"US","TIME_SYSTEM":"UTC"},{"SEMIMAJOR_AXIS":"6917.840","EPHEMERIS_TYPE":"0","CLASSIFICATION_TYPE":"U","ELEMENT_SET_NO":"999","RCS_SIZE":"LARGE","PERIOD":"95.437","MEAN_MOTION_DDOT":"0.0000000000000","EPOCH":"2023-04-17T15:34:49.215072","LAUNCH_DATE":"2021-12-02","INCLINATION":"53.2176","REV_AT_EPOCH":"7595","ARG_OF_PERICENTER":"91.7212","MEAN_MOTION_DOT":"0.00013062","TLE_LINE1":"1 49749U 21115AB  23107.64918073  .00013062  00000-0  83696-3 0  9991","CENTER_NAME":"EARTH","APOAPSIS":"540.604","TLE_LINE2":"2 49749  53.2176 214.3594 0001300  91.7212 268.3930 15.08853367 75956","MEAN_MOTION":"15.08853367","OBJECT_NAME":"STARLINK-3250","GP_ID":"230263901","FILE":"3889391","OBJECT_TYPE":"PAYLOAD","SITE":"AFETR","NORAD_CAT_ID":"49749","REF_FRAME":"TEME","DECAY_DATE":null,"RA_OF_ASC_NODE":"214.3594","MEAN_ELEMENT_THEORY":"SGP4","COUNTRY_CODE":"US","TIME_SYSTEM":"UTC","BSTAR":"0.00083696000000","OBJECT_ID":"2021-115AB","MEAN_ANOMALY":"268.3930","ECCENTRICITY":"0.00013000","PERIAPSIS":"538.805"}];
